# From MPEC 2022-S20
C/1995 O1 (Hale-Bopp),e,89.6364,281.9510,130.4136,179.7381,0.0004090,0.99492506,0.0000,03/30.4310/1997,2000,g -2.0,4.0
# From NK 1615
P/1996 R2 (Lagerkvist),e,2.5990,40.0383,333.5093,3.771700,0.1345545,0.31409547,337.6980,01/01.0/2026,2000,g 11.5,4.0
# From MPC 73460
C/1997 BA6 (Spacewatch),e,72.6902,317.7787,286.0837,2937,0.0000062,0.99882052,0.0000,11/15.7956/1999,2000,g 10.0,2.0
# From MPC 75703
P/1998 VS24 (LINEAR),e,5.0301,159.0330,244.9329,4.519622,0.1025772,0.24344884,296.8992,01/01.0/2026,2000,g 13.0,2.0
# From MPC 73461
C/1999 F1 (Catalina),e,91.8621,19.9530,255.3241,20518,0.0000003,0.99971672,0.0000,01/31.1948/2002,2000,g  9.5,2.0
# From MPC186628
C/1999 J2 (Skiff),h,04/09.2855/2000,86.4037,50.2745,126.9700,1.000780,7.071965,2000,2.0,4.0
# From NK 731
P/1999 RO28 (LONEOS),e,7.5672,137.8396,231.3596,3.425206,0.1554798,0.67218206,9.7475,01/01.0/2026,2000,g 20.0,2.0
# From MPC 43758
C/1999 S2 (McNaught-Watson),h,11/07.1390/1997,65.6275,74.4448,223.4763,1.002331,6.503634,2000,2.0,4.0
# From MPC 75704
P/1999 XN120 (Catalina),e,5.0300,285.2382,161.4844,4.189850,0.1149228,0.21283994,1.2699,01/01.0/2026,2000,g 13.5,2.0
# From NK 744
P/2000 R2 (LINEAR),e,11.6793,160.2682,176.5821,3.468303,0.1525908,0.53054075,4.5325,01/01.0/2026,2000,g 18.0,4.0
# From MPC 43019
P/2001 H5 (NEAT),e,8.3727,328.6838,224.5805,6.093350,0.0655269,0.59963997,245.0322,01/01.0/2026,2000,g 12.0,4.0
# From MPC 46619
C/2001 M10 (NEAT),e,27.9946,293.9615,5.6096,26.72254,0.0071349,0.79927590,64.0567,01/01.0/2026,2000,g  8.0,4.0
# From MPEC 2015-N31
C/2002 A1 (LINEAR),e,14.0797,81.0452,18.7179,16.04065,0.0153416,0.70977204,134.9703,01/01.0/2026,2000,g 12.5,2.0
# From MPC 89006
C/2002 A2 (LINEAR),e,14.0338,81.0119,19.1132,15.89567,0.0155520,0.70744368,136.7115,01/01.0/2026,2000,g 11.0,2.0
# From MPC 45962
C/2002 B1 (LINEAR),e,51.0291,58.2670,76.0834,9.874518,0.0317636,0.77050975,275.5268,01/01.0/2026,2000,g 11.5,4.0
# From MPC188408
C/2002 CE10 (LINEAR),e,145.3748,147.5607,126.2391,9.765754,0.0322958,0.78943295,265.5450,01/01.0/2026,2000,g 13.0,2.0
# From MPEC 2023-UR6
P/2002 EJ57 (LINEAR),e,4.9909,330.2200,167.2968,6.454541,0.0601044,0.59416142,165.3206,01/01.0/2026,2000,g 12.5,4.0
# From MPEC 2015-N31
C/2002 L9 (NEAT),h,04/02.8150/2004,68.2219,110.4979,231.5846,1.000496,7.073391,2000,8.5,2.0
# From MPC 75007
C/2002 VQ94 (LINEAR),e,70.6223,35.0552,99.8135,187.4648,0.0003840,0.96398790,2.7886,01/01.0/2026,2000,g  9.5,2.0
# From MPC186628
C/2003 A2 (Gleason),e,8.0711,154.4605,346.5439,7857,0.0000014,0.99855376,0.0000,11/08.3150/2003,2000,g  3.5,4.0
# From MPC 51182
C/2003 E1 (NEAT),e,33.4707,137.1173,103.9276,13.77321,0.0192820,0.76202321,154.5954,01/01.0/2026,2000,g 12.5,2.0
# From MPC 50354
P/2003 F2 (NEAT),e,11.5842,358.9605,193.0959,6.553665,0.0587459,0.53636057,131.7883,01/01.0/2026,2000,g 16.5,2.0
# From unp
P/2003 L1 (Scotti),e,9.0431,225.8386,355.0338,6.693967,0.0569087,0.25184184,113.8212,01/01.0/2026,2000,g  9.5,4.0
# From MPC105235
P/2003 T12 (SOHO),e,11.0207,174.5700,219.8042,2.584247,0.2372482,0.77004956,129.6155,01/01.0/2026,2000,g 17.0,4.0
# From MPC 57131
C/2004 B1 (LINEAR),h,02/07.9284/2006,113.9124,273.3359,328.1252,1.000961,1.602274,2000,10.5,2.0
# From MPC 51368
C/2004 C1 (Larsen),e,28.8625,151.9549,315.9683,11.62433,0.0248686,0.62580256,359.9917,03/19.0/2003,2000,g 13.5,2.0
# From MPEC 2022-YN2
P/2004 FY140 (LINEAR),e,2.1629,327.2625,254.3190,4.968480,0.0889956,0.19289142,322.8409,01/01.0/2026,2000,g 12.5,2.0
# From MPC 53304
P/2004 R3 (LINEAR-NEAT),e,12.8052,305.1237,37.0485,4.744500,0.0953715,0.25488079,149.6650,01/01.0/2026,2000,g 14.5,4.0
# From MPC 53465
C/2004 T3 (Siding Spring),e,71.7731,50.3504,259.8492,46565,0.0000001,0.99980872,0.0000,04/04.5431/2003,2000,g  2.5,4.0
# From MPC 75705
P/2004 V5 (LINEAR-Hill),e,19.3305,47.7358,87.1516,8.053982,0.0431209,0.44951618,334.9229,01/01.0/2026,2000,g  8.0,4.0
# From unp
P/2004 V5-A (LINEAR-Hill),e,19.3339,47.7628,87.1165,8.054819,0.0431142,0.44960052,334.9373,01/01.0/2026,2000,g  8.0,4.0
# From MPC 75705
P/2004 V5-B (LINEAR-Hill),e,19.3307,47.7362,87.1560,8.054189,0.0431193,0.44953059,334.8818,01/01.0/2026,2000,g  8.0,4.0
# From MPC 54164
P/2005 E1 (Tubbiolo),e,4.2606,335.4854,193.9652,7.073464,0.0523909,0.37756199,43.2506,01/01.0/2026,2000,g 10.0,4.0
# From MPC 74246
P/2005 L1 (McNaught),e,10.0005,124.0916,166.0311,3.849379,0.1305023,0.27966237,181.7499,01/01.0/2026,2000,g  9.5,4.0
# From MPC 87062
C/2005 L3 (McNaught),e,139.3142,288.7781,46.9670,4053,0.0000038,0.99862425,0.0000,01/14.4617/2008,2000,g  4.0,4.0
# From MPC 75706
P/2005 S2 (Skiff),e,3.1394,161.3266,230.0731,7.981367,0.0437107,0.19821489,310.9505,01/01.0/2026,2000,g  7.5,4.0
# From MPC 73461
P/2005 T3 (Read),e,6.2335,27.6189,7.1729,7.567890,0.0473415,0.17369875,349.0147,01/01.0/2026,2000,g  9.0,4.0
# From MPC 75707
P/2006 HR30 (Siding Spring),e,31.9657,309.7462,117.5281,7.793902,0.0452972,0.84353478,314.1382,01/01.0/2026,2000,g 11.0,4.0
# From MPEC 2022-L66
C/2006 S3 (LONEOS),h,04/16.6200/2012,166.0456,38.5390,140.1441,1.000693,5.118279,2000,2.0,4.0
# From MPC 84315
C/2007 D1 (LINEAR),e,41.5180,170.9882,339.8098,1301,0.0000210,0.99328031,0.0000,06/16.0170/2007,2000,g  3.5,4.0
# From MPEC 2024-GJ3
P/2007 K2 (Gibbs),e,7.5875,188.3119,347.0413,7.400250,0.0489592,0.68697085,340.9011,01/01.0/2026,2000,g 14.0,4.0
# From MPC 73462
P/2007 S1 (Zhao),e,5.9625,141.3212,245.2851,3.819222,0.1320510,0.33767331,156.2069,01/01.0/2026,2000,g 13.0,4.0
# From MPEC 2024-GJ3
C/2007 S2 (Lemmon),e,16.9208,296.1345,210.1491,12.49220,0.0223227,0.55741797,141.1598,01/01.0/2026,2000,g  6.5,4.0
# From MPEC 2024-GJ3
C/2008 E1 (Catalina),e,34.8637,188.8803,270.4201,10.76360,0.0279105,0.55294255,176.8908,01/01.0/2026,2000,g  7.0,4.0
# From MPC 95207
C/2008 S3 (Boattini),h,06/09.0337/2011,162.7434,55.0215,40.1972,1.001826,8.056669,2000,4.0,4.0
# From MPC 75710
P/2008 Y3 (McNaught),e,38.7802,262.8280,238.1889,8.034005,0.0432819,0.44860707,268.9534,01/01.0/2026,2000,g  8.5,4.0
# From MPC 75710
P/2009 B1 (Boattini),e,22.2597,297.1089,129.0255,6.721791,0.0565557,0.63580617,349.7918,01/01.0/2026,2000,g 13.0,4.0
# From MPC 95208
C/2009 F4 (McNaught),e,79.2000,53.5031,260.5034,25326,0.0000002,0.99978373,0.0000,12/25.6266/2011,2000,g  3.0,4.0
# From MPC103843
C/2009 P1 (Garradd),e,106.2294,325.8563,90.4517,10698,0.0000009,0.99985619,0.0000,12/24.4260/2011,2000,g  4.0,4.0
# From MPC 68902
P/2009 Q5 (McNaught),e,40.9481,160.1839,209.2010,7.427187,0.0486931,0.60910790,289.5152,01/01.0/2026,2000,g 10.0,4.0
# From MPC105235
P/2009 WX51 (Catalina),e,9.5982,31.5216,118.2948,3.082815,0.1820887,0.73974801,341.0531,01/01.0/2026,2000,g 19.0,2.0
# From MPC 74247
P/2009 Y2 (Kowalski),e,29.9725,262.0780,172.2745,6.534557,0.0590038,0.63729856,340.2451,01/01.0/2026,2000,g 13.0,4.0
# From MPC 75008
P/2010 C1 (Scotti),e,9.1158,141.5836,2.8774,7.133318,0.0517329,0.26444525,308.5878,01/01.0/2026,2000,g  9.5,4.0
# From MPC 75008
P/2010 D2 (WISE),e,57.1395,319.8797,120.0569,6.713315,0.0566629,0.45155402,328.5671,01/01.0/2026,2000,g 16.0,4.0
# From MPC 72851
P/2010 H2 (Vales),e,14.2782,64.1895,128.0732,3.835261,0.1312235,0.19796988,39.0003,01/01.0/2026,2000,g  6.0,4.0
# From MPC 70361
P/2010 H3 (SOHO),e,23.1404,77.1686,26.0877,3.034610,0.1864446,0.98558086,0.0000,05/25.2479/2026,2000,g 20.0,2.0
# From MPEC 2024-GJ3
P/2010 H4 (Scotti),e,2.3177,44.7488,179.0789,6.620034,0.0578647,0.26740784,330.7490,01/01.0/2026,2000,g 10.5,4.0
# From MPC 74637
P/2010 H5 (Scotti),e,14.0524,24.3922,175.3860,7.168204,0.0513557,0.15642678,296.3214,01/01.0/2026,2000,g 13.0,2.0
# From MPC 84315
P/2010 JC81 (WISE),e,38.7409,30.8338,12.5226,8.103107,0.0427294,0.77786806,228.7625,01/01.0/2026,2000,g  9.0,4.0
# From MPC 83518
C/2010 L3 (Catalina),e,102.6462,38.3225,121.7548,38388,0.0000001,0.99974293,0.0000,11/12.5115/2010,2000,g  4.5,4.0
# From MPC115879
C/2010 S1 (LINEAR),h,05/20.3627/2013,125.4398,93.6713,118.7224,1.000702,5.909269,2000,3.5,4.0
# From MPC 74248
P/2010 T2 (PANSTARRS),e,7.8528,57.7030,349.8641,5.569333,0.0749893,0.32448878,51.0156,01/01.0/2026,2000,g 11.5,4.0
# From MPEC 2023-J95
C/2010 U3 (Boattini),h,02/28.8031/2019,55.5297,42.9945,88.1091,1.000188,8.440817,2000,1.0,4.0
# From MPC 79021
P/2010 UH55 (Spacewatch),e,8.0378,232.7967,225.3732,6.645453,0.0575330,0.56467096,309.1744,01/01.0/2026,2000,g 11.0,4.0
# From MPC 84021
P/2011 C2 (Gibbs),e,10.8982,11.9671,160.3168,7.406210,0.0489001,0.27168453,251.2502,01/01.0/2026,2000,g  9.0,4.0
# From MPC 89309
C/2011 F1 (LINEAR),e,56.3823,85.1969,192.6048,3811,0.0000042,0.99951786,0.0000,01/01.8064/2013,2000,g  5.0,4.0
# From MPC 79866
P/2011 FR143 (Lemmon),e,15.9611,190.8425,349.6082,6.886331,0.0545409,0.45294969,298.5609,01/01.0/2026,2000,g 14.0,2.0
# From MPC106343
C/2011 J2 (LINEAR),h,12/20.3921/2013,122.7907,164.0505,85.4769,1.000294,3.459913,2000,5.5,3.6
# From MPC 82317
P/2011 JB15 (Spacewatch-Boattini),e,19.1271,153.5836,110.6144,7.382320,0.0491377,0.31517228,251.9500,01/01.0/2026,2000,g  9.0,4.0
# From MPEC 2023-J95
C/2011 KP36 (Spacewatch),e,18.9566,173.4026,180.9713,39.38878,0.0039870,0.87495414,13.9868,01/01.0/2026,2000,g  4.5,4.0
# From MPC 87913
P/2011 N1 (ASH),e,35.7830,77.6251,330.5196,6.231476,0.0633604,0.54533023,313.8029,01/01.0/2026,2000,g 11.5,4.0
# From MPEC 2022-ED3
P/2011 P1 (McNaught),e,5.6503,4.2441,349.1377,7.463844,0.0483348,0.32603974,272.2281,01/01.0/2026,2000,g  9.0,4.0
# From MPC107047
C/2011 P2 (PANSTARRS),e,8.9825,203.9262,76.2152,9.765860,0.0322952,0.36526744,181.5034,01/01.0/2026,2000,g  8.5,4.0
# From MPEC 2022-HC2
P/2011 S1 (Gibbs),e,2.6876,218.8978,193.0326,8.600444,0.0390771,0.20049027,162.0862,01/01.0/2026,2000,g  8.0,4.0
# From MPEC 2023-UR6
P/2011 V1 (Boattini),e,7.3823,46.4909,269.5915,3.858194,0.1300553,0.54838130,345.3656,01/01.0/2026,2000,g 15.5,4.0
# From MPC 82718
P/2011 W1 (PANSTARRS),e,3.7158,161.7928,283.1019,4.675639,0.0974861,0.28830446,138.5648,01/01.0/2026,2000,g 11.5,4.0
# From MPC 79342
